{"type": "FeatureCollection", "features": [ {"type": "Feature", "properties": {"norad_id": 41836, "name": "HIMAWARI-9", "group": "weather", "lat": 0.03940564792330866, "lon": 123.25027979105062, "alt_km": 35792.60047668246, "timestamp": "2025-12-21T16:47:54.371734+00:00", "meta": {"OBJECT_NAME": "HIMAWARI-9", "OBJECT_ID": "2016-064A", "EPOCH": "2025-12-21T12:57:31.241088", "MEAN_MOTION": 1.00268672, "ECCENTRICITY": 0.000155, "INCLINATION": 0.0165, "RA_OF_ASC_NODE": 17.3484, "ARG_OF_PERICENTER": 316.3268, "MEAN_ANOMALY": 91.8221, "EPHEMERIS_TYPE": 0, "CLASSIFICATION_TYPE": "U", "NORAD_CAT_ID": 41836, "ELEMENT_SET_NO": 999, "REV_AT_EPOCH": 3342, "BSTAR": 0, "MEAN_MOTION_DOT": 0, "MEAN_MOTION_DDOT": 0}, "tle": {"line1": "1 41836U 16064A   25355.53994492  .00000000  00000+0  00000+0 0  9992", "line2": "2 41836   0.0165  17.3484 0001550 316.3268  91.8221  1.00268672 33420"}}, "geometry": {"type": "Point", "coordinates": [123.25027979105062, 0.03940564792330866]}}, {"type": "Feature", "properties": {"norad_id": 41866, "name": "GOES 16", "group": "weather", "lat": 0.024761077501569927, "lon": -122.20133267942224, "alt_km": 35775.48271322091, "timestamp": "2025-12-21T16:47:54.371745+00:00", "meta": {"OBJECT_NAME": "GOES 16", "OBJECT_ID": "2016-071A", "EPOCH": "2025-12-21T10:26:59.836128", "MEAN_MOTION": 1.00269386, "ECCENTRICITY": 0.0002969, "INCLINATION": 0.0699, "RA_OF_ASC_NODE": 104.2282, "ARG_OF_PERICENTER": 159.8912, "MEAN_ANOMALY": 238.2168, "EPHEMERIS_TYPE": 0, "CLASSIFICATION_TYPE": "U", "NORAD_CAT_ID": 41866, "ELEMENT_SET_NO": 999, "REV_AT_EPOCH": 3332, "BSTAR": 0, "MEAN_MOTION_DOT": -6.8e-07, "MEAN_MOTION_DDOT": 0}, "tle": {"line1": "1 41866U 16071A   25355.43541477 -.00000068  00000+0  00000+0 0  9998", "line2": "2 41866   0.0699 104.2282 0002969 159.8912 238.2168  1.00269386 33327"}}, "geometry": {"type": "Point", "coordinates": [-122.20133267942224, 0.024761077501569927]}}, {"type": "Feature", "properties": {"norad_id": 41882, "name": "FENGYUN 4A", "group": "weather", "lat": 0.7825567353294663, "lon": 106.13331037092554, "alt_km": 35797.082154221804, "timestamp": "2025-12-21T16:47:54.371758+00:00", "meta": {"OBJECT_NAME": "FENGYUN 4A", "OBJECT_ID": "2016-077A", "EPOCH": "2025-12-19T13:51:06.687072", "MEAN_MOTION": 1.00266581, "ECCENTRICITY": 0.0004506, "INCLINATION": 1.866, "RA_OF_ASC_NODE": 82.3247, "ARG_OF_PERICENTER": 142.8816, "MEAN_ANOMALY": 194.7423, "EPHEMERIS_TYPE": 0, "CLASSIFICATION_TYPE": "U", "NORAD_CAT_ID": 41882, "ELEMENT_SET_NO": 999, "REV_AT_EPOCH": 3312, "BSTAR": 0, "MEAN_MOTION_DOT": -3.34e-06, "MEAN_MOTION_DDOT": 0}, "tle": {"line1": "1 41882U 16077A   25353.57716073 -.00000334  00000+0  00000+0 0  9997", "line2": "2 41882   1.8660  82.3247 0004506 142.8816 194.7423  1.00266581 33125"}}, "geometry": {"type": "Point", "coordinates": [106.13331037092554, 0.7825567353294663]}}, {"type": "Feature", "properties": {"norad_id": 41884, "name": "CYGFM05", "group": "weather", "lat": -14.827531571630967, "lon": -33.67785749695966, "alt_km": 421.0624787580391, "timestamp": "2025-12-21T16:47:54.371769+00:00", "meta": {"OBJECT_NAME": "CYGFM05", "OBJECT_ID": "2016-078A", "EPOCH": "2025-12-21T09:10:24.136320", "MEAN_MOTION": 15.47935175, "ECCENTRICITY": 0.0010843, "INCLINATION": 34.9606, "RA_OF_ASC_NODE": 350.6634, "ARG_OF_PERICENTER": 258.3827, "MEAN_ANOMALY": 101.5678, "EPHEMERIS_TYPE": 0, "CLASSIFICATION_TYPE": "U", "NORAD_CAT_ID": 41884, "ELEMENT_SET_NO": 999, "REV_AT_EPOCH": 50110, "BSTAR": 0.00031526, "MEAN_MOTION_DOT": 0.00016973, "MEAN_MOTION_DDOT": 0}, "tle": {"line1": "1 41884U 16078A   25355.38222380  .00016973  00000+0  31526-3 0  9990", "line2": "2 41884  34.9606 350.6634 0010843 258.3827 101.5678 15.47935175501105"}}, "geometry": {"type": "Point", "coordinates": [-33.67785749695966, -14.827531571630967]}}, {"type": "Feature", "properties": {"norad_id": 41885, "name": "CYGFM04", "group": "weather", "lat": -29.13950201200162, "lon": -89.89948166306496, "alt_km": 410.07573083780153, "timestamp": "2025-12-21T16:47:54.371780+00:00", "meta": {"OBJECT_NAME": "CYGFM04", "OBJECT_ID": "2016-078B", "EPOCH": "2025-12-21T07:46:40.834272", "MEAN_MOTION": 15.50699821, "ECCENTRICITY": 0.0009657, "INCLINATION": 34.9356, "RA_OF_ASC_NODE": 325.5706, "ARG_OF_PERICENTER": 282.921, "MEAN_ANOMALY": 77.0434, "EPHEMERIS_TYPE": 0, "CLASSIFICATION_TYPE": "U", "NORAD_CAT_ID": 41885, "ELEMENT_SET_NO": 999, "REV_AT_EPOCH": 50127, "BSTAR": 0.00032492, "MEAN_MOTION_DOT": 0.00019293, "MEAN_MOTION_DDOT": 0}, "tle": {"line1": "1 41885U 16078B   25355.32408373  .00019293  00000+0  32492-3 0  9994", "line2": "2 41885  34.9356 325.5706 0009657 282.9210  77.0434 15.50699821501273"}}, "geometry": {"type": "Point", "coordinates": [-89.89948166306496, -29.13950201200162]}}, {"type": "Feature", "properties": {"norad_id": 41886, "name": "CYGFM02", "group": "weather", "lat": -0.06356419350915408, "lon": -38.77885004778048, "alt_km": 407.145192901311, "timestamp": "2025-12-21T16:47:54.371791+00:00", "meta": {"OBJECT_NAME": "CYGFM02", "OBJECT_ID": "2016-078C", "EPOCH": "2025-12-21T07:32:12.876288", "MEAN_MOTION": 15.52104529, "ECCENTRICITY": 0.0011331, "INCLINATION": 34.9445, "RA_OF_ASC_NODE": 323.8504, "ARG_OF_PERICENTER": 283.548, "MEAN_ANOMALY": 76.3981, "EPHEMERIS_TYPE": 0, "CLASSIFICATION_TYPE": "U", "NORAD_CAT_ID": 41886, "ELEMENT_SET_NO": 999, "REV_AT_EPOCH": 50140, "BSTAR": 0.00033642, "MEAN_MOTION_DOT": 0.00021032, "MEAN_MOTION_DDOT": 0}, "tle": {"line1": "1 41886U 16078C   25355.31403792  .00021032  00000+0  33642-3 0  9996", "line2": "2 41886  34.9445 323.8504 0011331 283.5480  76.3981 15.52104529501400"}}, "geometry": {"type": "Point", "coordinates": [-38.77885004778048, -0.06356419350915408]}}, {"type": "Feature", "properties": {"norad_id": 41887, "name": "CYGFM01", "group": "weather", "lat": 19.962036459923507, "lon": 22.218210776082138, "alt_km": 422.630738548306, "timestamp": "2025-12-21T16:47:54.371827+00:00", "meta": {"OBJECT_NAME": "CYGFM01", "OBJECT_ID": "2016-078D", "EPOCH": "2025-12-21T08:54:17.164800", "MEAN_MOTION": 15.485232, "ECCENTRICITY": 0.001052, "INCLINATION": 34.9439, "RA_OF_ASC_NODE": 353.0252, "ARG_OF_PERICENTER": 251.1927, "MEAN_ANOMALY": 108.7653, "EPHEMERIS_TYPE": 0, "CLASSIFICATION_TYPE": "U", "NORAD_CAT_ID": 41887, "ELEMENT_SET_NO": 999, "REV_AT_EPOCH": 50104, "BSTAR": 0.00031477, "MEAN_MOTION_DOT": 0.000173, "MEAN_MOTION_DDOT": 0}, "tle": {"line1": "1 41887U 16078D   25355.37103200  .00017300  00000+0  31477-3 0  9991", "line2": "2 41887  34.9439 353.0252 0010520 251.1927 108.7653 15.48523200501047"}}, "geometry": {"type": "Point", "coordinates": [22.218210776082138, 19.962036459923507]}}, {"type": "Feature", "properties": {"norad_id": 41888, "name": "CYGFM08", "group": "weather", "lat": 28.20660937033489, "lon": 103.58119969805777, "alt_km": 419.2484539438119, "timestamp": "2025-12-21T16:47:54.371840+00:00", "meta": {"OBJECT_NAME": "CYGFM08", "OBJECT_ID": "2016-078E", "EPOCH": "2025-12-21T06:59:16.414080", "MEAN_MOTION": 15.49748097, "ECCENTRICITY": 0.0011942, "INCLINATION": 34.9467, "RA_OF_ASC_NODE": 336.439, "ARG_OF_PERICENTER": 273.0676, "MEAN_ANOMALY": 86.868, "EPHEMERIS_TYPE": 0, "CLASSIFICATION_TYPE": "U", "NORAD_CAT_ID": 41888, "ELEMENT_SET_NO": 999, "REV_AT_EPOCH": 50126, "BSTAR": 0.00032362, "MEAN_MOTION_DOT": 0.00018591, "MEAN_MOTION_DDOT": 0}, "tle": {"line1": "1 41888U 16078E   25355.29116220  .00018591  00000+0  32362-3 0  9996", "line2": "2 41888  34.9467 336.4390 0011942 273.0676  86.8680 15.49748097501264"}}, "geometry": {"type": "Point", "coordinates": [103.58119969805777, 28.20660937033489]}}, {"type": "Feature", "properties": {"norad_id": 41890, "name": "CYGFM07", "group": "weather", "lat": 25.565245265508246, "lon": 99.45547558955468, "alt_km": 417.15567613680287, "timestamp": "2025-12-21T16:47:54.371852+00:00", "meta": {"OBJECT_NAME": "CYGFM07", "OBJECT_ID": "2016-078G", "EPOCH": "2025-12-21T06:57:46.804320", "MEAN_MOTION": 15.50339451, "ECCENTRICITY": 0.0009994, "INCLINATION": 34.9486, "RA_OF_ASC_NODE": 325.3781, "ARG_OF_PERICENTER": 288.0026, "MEAN_ANOMALY": 71.9607, "EPHEMERIS_TYPE": 0, "CLASSIFICATION_TYPE": "U", "NORAD_CAT_ID": 41890, "ELEMENT_SET_NO": 999, "REV_AT_EPOCH": 50128, "BSTAR": 0.00032617, "MEAN_MOTION_DOT": 0.0001912, "MEAN_MOTION_DDOT": 0}, "tle": {"line1": "1 41890U 16078G   25355.29012505  .00019120  00000+0  32617-3 0  9992", "line2": "2 41890  34.9486 325.3781 0009994 288.0026  71.9607 15.50339451501286"}}, "geometry": {"type": "Point", "coordinates": [99.45547558955468, 25.565245265508246]}}, {"type": "Feature", "properties": {"norad_id": 41891, "name": "CYGFM03", "group": "weather", "lat": -20.391388108877486, "lon": -67.55162857943358, "alt_km": 412.30541665694, "timestamp": "2025-12-21T16:47:54.371863+00:00", "meta": {"OBJECT_NAME": "CYGFM03", "OBJECT_ID": "2016-078H", "EPOCH": "2025-12-21T07:41:09.974976", "MEAN_MOTION": 15.50235912, "ECCENTRICITY": 0.0009662, "INCLINATION": 34.9438, "RA_OF_ASC_NODE": 327.1044, "ARG_OF_PERICENTER": 275.8408, "MEAN_ANOMALY": 84.1213, "EPHEMERIS_TYPE": 0, "CLASSIFICATION_TYPE": "U", "NORAD_CAT_ID": 41891, "ELEMENT_SET_NO": 999, "REV_AT_EPOCH": 50126, "BSTAR": 0.00032821, "MEAN_MOTION_DOT": 0.00019168, "MEAN_MOTION_DDOT": 0}, "tle": {"line1": "1 41891U 16078H   25355.32025434  .00019168  00000+0  32821-3 0  9991", "line2": "2 41891  34.9438 327.1044 0009662 275.8408  84.1213 15.50235912501260"}}, "geometry": {"type": "Point", "coordinates": [-67.55162857943358, -20.391388108877486]}}]}